{"fetched_at":"2026-07-09T18:16:50.887Z","source":"https://celestrak.org/NORAD/elements/gp.php?GROUP=stations&FORMAT=JSON","constellation":"tiangong","records":[{"OBJECT_NAME":"CSS (TIANHE)","OBJECT_ID":"2021-035A","EPOCH":"2026-07-09T06:05:17.956320","CLASSIFICATION_TYPE":"U","MEAN_MOTION":15.5801813,"ECCENTRICITY":0.0002664,"INCLINATION":41.4687,"RA_OF_ASC_NODE":187.8435,"ARG_OF_PERICENTER":281.4115,"MEAN_ANOMALY":78.6423,"EPHEMERIS_TYPE":0,"NORAD_CAT_ID":48274,"ELEMENT_SET_NO":999,"REV_AT_EPOCH":29661,"BSTAR":0.000017467,"MEAN_MOTION_DOT":0.00001018,"MEAN_MOTION_DDOT":0}]}
